[{"OBJECT_NAME":"GRACE-FO 1","OBJECT_ID":"2018-047A","EPOCH":"2026-03-09T22:18:06.984864","MEAN_MOTION":15.37445091,"ECCENTRICITY":0.00130905,"INCLINATION":88.9903,"RA_OF_ASC_NODE":211.5804,"ARG_OF_PERICENTER":129.4335,"MEAN_ANOMALY":230.8081,"EPHEMERIS_TYPE":0,"CLASSIFICATION_TYPE":"U","NORAD_CAT_ID":43476,"ELEMENT_SET_NO":999,"REV_AT_EPOCH":43454,"BSTAR":0.00017214877,"MEAN_MOTION_DOT":6.364e-5,"MEAN_MOTION_DDOT":0},{"OBJECT_NAME":"CZ-4B R\/B","OBJECT_ID":"2004-035C","EPOCH":"2026-03-09T23:23:31.358400","MEAN_MOTION":15.2906998,"ECCENTRICITY":0.00309852,"INCLINATION":97.3501,"RA_OF_ASC_NODE":103.2135,"ARG_OF_PERICENTER":330.5139,"MEAN_ANOMALY":29.4353,"EPHEMERIS_TYPE":0,"CLASSIFICATION_TYPE":"U","NORAD_CAT_ID":28415,"ELEMENT_SET_NO":999,"REV_AT_EPOCH":17995,"BSTAR":0.00034109099,"MEAN_MOTION_DOT":9.691e-5,"MEAN_MOTION_DDOT":0}]
